IRIDIUM 106             
1 41917U 17003A   25078.90243147  .00000100  00000+0  28633-4 0  9991
2 41917  86.3909 278.3447 0001704  78.4752 281.6635 14.34218097428092
IRIDIUM 103             
1 41918U 17003B   25078.68044652  .00000266  00000+0  87899-4 0  9999
2 41918  86.3910 278.3387 0002563  77.9991 282.1492 14.34218188428088
IRIDIUM 109             
1 41919U 17003C   25078.61701630  .00000003  00000+0 -60580-5 0  9998
2 41919  86.3912 278.4171 0002188  90.4622 269.6825 14.34217504428044
IRIDIUM 102             
1 41920U 17003D   25078.58530228  .00000021  00000+0  56250-6 0  9998
2 41920  86.3909 278.3634 0001935  92.9779 267.1639 14.34217763428126
IRIDIUM 105             
1 41921U 17003E   25078.90487666  .00000358  00000+0  12079-3 0  9993
2 41921  86.3934 246.6422 0002105  89.6125 270.5312 14.34221164430024
IRIDIUM 104             
1 41922U 17003F   25078.94683154  .00000035  00000+0  54911-5 0  9993
2 41922  86.3910 278.2480 0002638  89.4581 270.6917 14.34217791428164
IRIDIUM 114             
1 41923U 17003G   25078.60433081  .00000010  00000+0 -33421-5 0  9996
2 41923  86.3910 278.3762 0002242  82.8944 277.2507 14.34217683428090
IRIDIUM 108             
1 41924U 17003H   25078.91169391  .00000002  00000+0 -63472-5 0  9991
2 41924  86.3931 246.5467 0001695  89.8179 270.3211 14.34217566429997
